{
  "type": "FeatureCollection",
  "features": [
    {
      "type": "Feature",
      "properties": {
        "norad_id": 34540,
        "name": "IRIDIUM 33 DEB",
        "group": "iridium-33-debris",
        "lat": -28.0286432883289,
        "lon": 128.10908467158322,
        "alt_km": 643.9472549569127,
        "timestamp": "2025-12-15T22:44:29.314598+00:00",
        "meta_object_name": "IRIDIUM 33 DEB",
        "meta_object_id": "1997-051JH",
        "meta_epoch": "2025-12-14T21:37:43.057056",
        "meta_mean_motion": 14.75375098,
        "meta_eccentricity": 0.00167778,
        "meta_inclination": 86.3098,
        "meta_ra_of_asc_node": 306.6186,
        "meta_arg_of_pericenter": 151.5752,
        "meta_mean_anomaly": 262.2222,
        "meta_ephemeris_type": 0,
        "meta_classification_type": "U",
        "meta_norad_cat_id": 34540,
        "meta_element_set_no": 999,
        "meta_rev_at_epoch": 89053,
        "meta_bstar": 0.0010616231,
        "meta_mean_motion_dot": 7.243e-05,
        "meta_mean_motion_ddot": 0,
        "tle_line1": "1 34540U 97051JH  25348.90119279  .00007243  00000+0  10616-2 0  9999",
        "tle_line2": "2 34540  86.3098 306.6186 0016777 151.5752 262.2222 14.75375098890538"
      },
      "geometry": {
        "type": "Point",
        "coordinates": [
          128.10908467158322,
          -28.0286432883289
        ]
      }
    },
    {
      "type": "Feature",
      "properties": {
        "norad_id": 34648,
        "name": "IRIDIUM 33 DEB",
        "group": "iridium-33-debris",
        "lat": -19.593750693791534,
        "lon": -80.63723035973683,
        "alt_km": 775.8948093787312,
        "timestamp": "2025-12-15T22:44:29.314609+00:00",
        "meta_object_name": "IRIDIUM 33 DEB",
        "meta_object_id": "1997-051JZ",
        "meta_epoch": "2025-12-15T05:49:12.584928",
        "meta_mean_motion": 14.11584763,
        "meta_eccentricity": 0.01820017,
        "meta_inclination": 86.3893,
        "meta_ra_of_asc_node": 280.9354,
        "meta_arg_of_pericenter": 291.0865,
        "meta_mean_anomaly": 67.0943,
        "meta_ephemeris_type": 0,
        "meta_classification_type": "U",
        "meta_norad_cat_id": 34648,
        "meta_element_set_no": 999,
        "meta_rev_at_epoch": 84996,
        "meta_bstar": 0.0047262066,
        "meta_mean_motion_dot": 0.00010051,
        "meta_mean_motion_ddot": 0,
        "tle_line1": "1 34648U 97051JZ  25349.24250677  .00010051  00000+0  47262-2 0  9992",
        "tle_line2": "2 34648  86.3893 280.9354 0182001 291.0865  67.0943 14.11584763849963"
      },
      "geometry": {
        "type": "Point",
        "coordinates": [
          -80.63723035973683,
          -19.593750693791534
        ]
      }
    },
    {
      "type": "Feature",
      "properties": {
        "norad_id": 34651,
        "name": "IRIDIUM 33 DEB",
        "group": "iridium-33-debris",
        "lat": -21.643650222192335,
        "lon": -39.30905065123016,
        "alt_km": 709.7234744663174,
        "timestamp": "2025-12-15T22:44:29.314619+00:00",
        "meta_object_name": "IRIDIUM 33 DEB",
        "meta_object_id": "1997-051KC",
        "meta_epoch": "2025-12-14T20:32:02.678784",
        "meta_mean_motion": 14.25858999,
        "meta_eccentricity": 0.01421805,
        "meta_inclination": 86.2825,
        "meta_ra_of_asc_node": 139.6773,
        "meta_arg_of_pericenter": 197.246,
        "meta_mean_anomaly": 162.3876,
        "meta_ephemeris_type": 0,
        "meta_classification_type": "U",
        "meta_norad_cat_id": 34651,
        "meta_element_set_no": 999,
        "meta_rev_at_epoch": 85926,
        "meta_bstar": 0.0023063549,
        "meta_mean_motion_dot": 6.121e-05,
        "meta_mean_motion_ddot": 0,
        "tle_line1": "1 34651U 97051KC  25348.85558656  .00006121  00000+0  23064-2 0  9997",
        "tle_line2": "2 34651  86.2825 139.6773 0142180 197.2460 162.3876 14.25858999859266"
      },
      "geometry": {
        "type": "Point",
        "coordinates": [
          -39.30905065123016,
          -21.643650222192335
        ]
      }
    },
    {
      "type": "Feature",
      "properties": {
        "norad_id": 34652,
        "name": "IRIDIUM 33 DEB",
        "group": "iridium-33-debris",
        "lat": -49.63367128094146,
        "lon": -25.754978364906584,
        "alt_km": 676.756377373059,
        "timestamp": "2025-12-15T22:44:29.314629+00:00",
        "meta_object_name": "IRIDIUM 33 DEB",
        "meta_object_id": "1997-051KD",
        "meta_epoch": "2025-12-15T06:49:48.156096",
        "meta_mean_motion": 14.62085676,
        "meta_eccentricity": 0.00257243,
        "meta_inclination": 86.3314,
        "meta_ra_of_asc_node": 338.8687,
        "meta_arg_of_pericenter": 288.9565,
        "meta_mean_anomaly": 133.9117,
        "meta_ephemeris_type": 0,
        "meta_classification_type": "U",
        "meta_norad_cat_id": 34652,
        "meta_element_set_no": 999,
        "meta_rev_at_epoch": 88521,
        "meta_bstar": 0.00068193421,
        "meta_mean_motion_dot": 3.462e-05,
        "meta_mean_motion_ddot": 0,
        "tle_line1": "1 34652U 97051KD  25349.28458514  .00003462  00000+0  68193-3 0  9996",
        "tle_line2": "2 34652  86.3314 338.8687 0025724 288.9565 133.9117 14.62085676885217"
      },
      "geometry": {
        "type": "Point",
        "coordinates": [
          -25.754978364906584,
          -49.63367128094146
        ]
      }
    },
    {
      "type": "Feature",
      "properties": {
        "norad_id": 34690,
        "name": "IRIDIUM 33 DEB",
        "group": "iridium-33-debris",
        "lat": 85.45533410820116,
        "lon": 162.77584881452887,
        "alt_km": 699.4512767543802,
        "timestamp": "2025-12-15T22:44:29.314639+00:00",
        "meta_object_name": "IRIDIUM 33 DEB",
        "meta_object_id": "1997-051KM",
        "meta_epoch": "2025-12-14T22:22:43.760352",
        "meta_mean_motion": 14.55104553,
        "meta_eccentricity": 0.00105916,
        "meta_inclination": 86.3786,
        "meta_ra_of_asc_node": 36.0386,
        "meta_arg_of_pericenter": 22.3695,
        "meta_mean_anomaly": 156.1415,
        "meta_ephemeris_type": 0,
        "meta_classification_type": "U",
        "meta_norad_cat_id": 34690,
        "meta_element_set_no": 999,
        "meta_rev_at_epoch": 88126,
        "meta_bstar": 0.00037009207,
        "meta_mean_motion_dot": 1.618e-05,
        "meta_mean_motion_ddot": 0,
        "tle_line1": "1 34690U 97051KM  25348.93245093  .00001618  00000+0  37009-3 0  9998",
        "tle_line2": "2 34690  86.3786  36.0386 0010591  22.3695 156.1415 14.55104553881262"
      },
      "geometry": {
        "type": "Point",
        "coordinates": [
          162.77584881452887,
          85.45533410820116
        ]
      }
    },
    {
      "type": "Feature",
      "properties": {
        "norad_id": 34693,
        "name": "IRIDIUM 33 DEB",
        "group": "iridium-33-debris",
        "lat": -84.25081688181844,
        "lon": 162.17600605828662,
        "alt_km": 494.1349481731386,
        "timestamp": "2025-12-15T22:44:29.314650+00:00",
        "meta_object_name": "IRIDIUM 33 DEB",
        "meta_object_id": "1997-051KQ",
        "meta_epoch": "2025-12-15T08:06:08.441280",
        "meta_mean_motion": 15.28606689,
        "meta_eccentricity": 0.00131925,
        "meta_inclination": 86.304,
        "meta_ra_of_asc_node": 302.5341,
        "meta_arg_of_pericenter": 48.7698,
        "meta_mean_anomaly": 102.4811,
        "meta_ephemeris_type": 0,
        "meta_classification_type": "U",
        "meta_norad_cat_id": 34693,
        "meta_element_set_no": 999,
        "meta_rev_at_epoch": 88954,
        "meta_bstar": 0.0030946192,
        "meta_mean_motion_dot": 0.00087157,
        "meta_mean_motion_ddot": 0,
        "tle_line1": "1 34693U 97051KQ  25349.33759770  .00087157  00000+0  30946-2 0  9992",
        "tle_line2": "2 34693  86.3040 302.5341 0013192  48.7698 102.4811 15.28606689889546"
      },
      "geometry": {
        "type": "Point",
        "coordinates": [
          162.17600605828662,
          -84.25081688181844
        ]
      }
    },
    {
      "type": "Feature",
      "properties": {
        "norad_id": 34696,
        "name": "IRIDIUM 33 DEB",
        "group": "iridium-33-debris",
        "lat": -12.658037205278715,
        "lon": 25.171645559462345,
        "alt_km": 732.0168865524656,
        "timestamp": "2025-12-15T22:44:29.314660+00:00",
        "meta_object_name": "IRIDIUM 33 DEB",
        "meta_object_id": "1997-051KT",
        "meta_epoch": "2025-12-14T21:07:54.379200",
        "meta_mean_motion": 14.65232108,
        "meta_eccentricity": 0.00739537,
        "meta_inclination": 86.1853,
        "meta_ra_of_asc_node": 26.5266,
        "meta_arg_of_pericenter": 160.2166,
        "meta_mean_anomaly": 322.3396,
        "meta_ephemeris_type": 0,
        "meta_classification_type": "U",
        "meta_norad_cat_id": 34696,
        "meta_element_set_no": 999,
        "meta_rev_at_epoch": 86704,
        "meta_bstar": 0.0028727685,
        "meta_mean_motion_dot": 0.0001615,
        "meta_mean_motion_ddot": 0,
        "tle_line1": "1 34696U 97051KT  25348.88049050  .00016150  00000+0  28728-2 0  9997",
        "tle_line2": "2 34696  86.1853  26.5266 0073953 160.2166 322.3396 14.65232108867042"
      },
      "geometry": {
        "type": "Point",
        "coordinates": [
          25.171645559462345,
          -12.658037205278715
        ]
      }
    }
  ]
}